{"type": "FeatureCollection", "features": [ {"type": "Feature", "properties": {"norad_id": 38953, "name": "BEIDOU-2 G6 (C02)", "group": "beidou", "lat": -3.281013837803003, "lon": 18.669398448653588, "alt_km": 35756.248662837825, "timestamp": "2025-12-06T14:35:37.391107+00:00", "meta": {"OBJECT_NAME": "BEIDOU-2 G6 (C02)", "OBJECT_ID": "2012-059A", "EPOCH": "2025-12-06T03:47:35.748960", "MEAN_MOTION": 1.00270309, "ECCENTRICITY": 0.00075213, "INCLINATION": 3.9317, "RA_OF_ASC_NODE": 75.5675, "ARG_OF_PERICENTER": 289.3051, "MEAN_ANOMALY": 211.2727, "EPHEMERIS_TYPE": 0, "CLASSIFICATION_TYPE": "U", "NORAD_CAT_ID": 38953, "ELEMENT_SET_NO": 999, "REV_AT_EPOCH": 4797, "BSTAR": 0, "MEAN_MOTION_DOT": -1.69e-06, "MEAN_MOTION_DDOT": 0}, "tle": {"line1": "1 38953U 12059A   25340.15805265 -.00000169  00000+0  00000+0 0  9996", "line2": "2 38953   3.9317  75.5675 0007521 289.3051 211.2727  1.00270309 47972"}}, "geometry": {"type": "Point", "coordinates": [18.669398448653588, -3.281013837803003]}}, {"type": "Feature", "properties": {"norad_id": 40748, "name": "BEIDOU-3S M2S (C58)", "group": "beidou", "lat": 27.043500558438538, "lon": -30.439762906419553, "alt_km": 21545.270080477836, "timestamp": "2025-12-06T14:35:37.391153+00:00", "meta": {"OBJECT_NAME": "BEIDOU-3S M2S (C58)", "OBJECT_ID": "2015-037A", "EPOCH": "2025-12-04T09:50:19.277376", "MEAN_MOTION": 1.86229056, "ECCENTRICITY": 0.00124004, "INCLINATION": 55.0462, "RA_OF_ASC_NODE": 308.7497, "ARG_OF_PERICENTER": 267.6151, "MEAN_ANOMALY": 92.2259, "EPHEMERIS_TYPE": 0, "CLASSIFICATION_TYPE": "U", "NORAD_CAT_ID": 40748, "ELEMENT_SET_NO": 999, "REV_AT_EPOCH": 7049, "BSTAR": 0, "MEAN_MOTION_DOT": -6.8e-07, "MEAN_MOTION_DDOT": 0}, "tle": {"line1": "1 40748U 15037A   25338.40994534 -.00000068  00000+0  00000+0 0  9991", "line2": "2 40748  55.0462 308.7497 0012400 267.6151  92.2259  1.86229056 70498"}}, "geometry": {"type": "Point", "coordinates": [-30.439762906419553, 27.043500558438538]}}, {"type": "Feature", "properties": {"norad_id": 40749, "name": "BEIDOU-3S M1S (C57)", "group": "beidou", "lat": -44.53232009670144, "lon": 172.10222437754177, "alt_km": 21535.13459530636, "timestamp": "2025-12-06T14:35:37.391175+00:00", "meta": {"OBJECT_NAME": "BEIDOU-3S M1S (C57)", "OBJECT_ID": "2015-037B", "EPOCH": "2025-12-01T22:57:46.412352", "MEAN_MOTION": 1.86253762, "ECCENTRICITY": 0.0003321, "INCLINATION": 55.0451, "RA_OF_ASC_NODE": 308.8236, "ARG_OF_PERICENTER": 355.9906, "MEAN_ANOMALY": 3.9975, "EPHEMERIS_TYPE": 0, "CLASSIFICATION_TYPE": "U", "NORAD_CAT_ID": 40749, "ELEMENT_SET_NO": 999, "REV_AT_EPOCH": 7045, "BSTAR": 0, "MEAN_MOTION_DOT": -6e-07, "MEAN_MOTION_DDOT": 0}, "tle": {"line1": "1 40749U 15037B   25335.95678718 -.00000060  00000+0  00000+0 0  9994", "line2": "2 40749  55.0451 308.8236 0003321 355.9906   3.9975  1.86253762 70451"}}, "geometry": {"type": "Point", "coordinates": [172.10222437754177, -44.53232009670144]}}, {"type": "Feature", "properties": {"norad_id": 40938, "name": "BEIDOU-3S IGSO-2S (C56)", "group": "beidou", "lat": 36.306159822351134, "lon": 42.31006242366167, "alt_km": 35650.584029182224, "timestamp": "2025-12-06T14:35:37.391188+00:00", "meta": {"OBJECT_NAME": "BEIDOU-3S IGSO-2S (C56)", "OBJECT_ID": "2015-053A", "EPOCH": "2025-12-03T17:17:32.013024", "MEAN_MOTION": 1.0027148, "ECCENTRICITY": 0.00611089, "INCLINATION": 49.5266, "RA_OF_ASC_NODE": 261.1136, "ARG_OF_PERICENTER": 188.632, "MEAN_ANOMALY": 338.5579, "EPHEMERIS_TYPE": 0, "CLASSIFICATION_TYPE": "U", "NORAD_CAT_ID": 40938, "ELEMENT_SET_NO": 999, "REV_AT_EPOCH": 3739, "BSTAR": 0, "MEAN_MOTION_DOT": -1.53e-06, "MEAN_MOTION_DDOT": 0}, "tle": {"line1": "1 40938U 15053A   25337.72050941 -.00000153  00000+0  00000+0 0  9994", "line2": "2 40938  49.5266 261.1136 0061108 188.6320 338.5579  1.00271480 37397"}}, "geometry": {"type": "Point", "coordinates": [42.31006242366167, 36.306159822351134]}}, {"type": "Feature", "properties": {"norad_id": 41434, "name": "BEIDOU-2 IGSO-6 (C13)", "group": "beidou", "lat": -11.429361413302106, "lon": 33.29196954330315, "alt_km": 35899.40691566355, "timestamp": "2025-12-06T14:35:37.391201+00:00", "meta": {"OBJECT_NAME": "BEIDOU-2 IGSO-6 (C13)", "OBJECT_ID": "2016-021A", "EPOCH": "2025-12-01T15:57:35.287200", "MEAN_MOTION": 1.00256562, "ECCENTRICITY": 0.00591323, "INCLINATION": 59.9483, "RA_OF_ASC_NODE": 40.0119, "ARG_OF_PERICENTER": 231.2834, "MEAN_ANOMALY": 130.8807, "EPHEMERIS_TYPE": 0, "CLASSIFICATION_TYPE": "U", "NORAD_CAT_ID": 41434, "ELEMENT_SET_NO": 999, "REV_AT_EPOCH": 3550, "BSTAR": 0, "MEAN_MOTION_DOT": -1.55e-06, "MEAN_MOTION_DDOT": 0}, "tle": {"line1": "1 41434U 16021A   25335.66499175 -.00000155  00000+0  00000+0 0  9991", "line2": "2 41434  59.9483  40.0119 0059132 231.2834 130.8807  1.00256562 35501"}}, "geometry": {"type": "Point", "coordinates": [33.29196954330315, -11.429361413302106]}}, {"type": "Feature", "properties": {"norad_id": 41586, "name": "BEIDOU-2 G7 (C03)", "group": "beidou", "lat": -0.648635112315357, "lon": 45.013084843835706, "alt_km": 35769.85579258196, "timestamp": "2025-12-06T14:35:37.391214+00:00", "meta": {"OBJECT_NAME": "BEIDOU-2 G7 (C03)", "OBJECT_ID": "2016-037A", "EPOCH": "2025-12-06T00:29:39.710400", "MEAN_MOTION": 1.0027031, "ECCENTRICITY": 0.00043716, "INCLINATION": 1.7398, "RA_OF_ASC_NODE": 67.7245, "ARG_OF_PERICENTER": 2.0218, "MEAN_ANOMALY": 123.2221, "EPHEMERIS_TYPE": 0, "CLASSIFICATION_TYPE": "U", "NORAD_CAT_ID": 41586, "ELEMENT_SET_NO": 999, "REV_AT_EPOCH": 495, "BSTAR": 0, "MEAN_MOTION_DOT": -3.45e-06, "MEAN_MOTION_DDOT": 0}, "tle": {"line1": "1 41586U 16037A   25340.02059850 -.00000345  00000+0  00000+0 0  9995", "line2": "2 41586   1.7398  67.7245 0004371   2.0218 123.2221  1.00270310  4958"}}, "geometry": {"type": "Point", "coordinates": [45.013084843835706, -0.648635112315357]}}, {"type": "Feature", "properties": {"norad_id": 43001, "name": "BEIDOU-3 M1 (C19)", "group": "beidou", "lat": 14.844811390966026, "lon": -120.64078527181005, "alt_km": 21545.743137254594, "timestamp": "2025-12-06T14:35:37.391225+00:00", "meta": {"OBJECT_NAME": "BEIDOU-3 M1 (C19)", "OBJECT_ID": "2017-069A", "EPOCH": "2025-12-03T03:27:53.485056", "MEAN_MOTION": 1.86230745, "ECCENTRICITY": 0.00088373, "INCLINATION": 56.5186, "RA_OF_ASC_NODE": 69.5514, "ARG_OF_PERICENTER": 303.7187, "MEAN_ANOMALY": 56.1997, "EPHEMERIS_TYPE": 0, "CLASSIFICATION_TYPE": "U", "NORAD_CAT_ID": 43001, "ELEMENT_SET_NO": 999, "REV_AT_EPOCH": 5495, "BSTAR": 0, "MEAN_MOTION_DOT": -4.9e-07, "MEAN_MOTION_DDOT": 0}, "tle": {"line1": "1 43001U 17069A   25337.14436904 -.00000049  00000+0  00000+0 0  9994", "line2": "2 43001  56.5186  69.5514 0008837 303.7187  56.1997  1.86230745 54952"}}, "geometry": {"type": "Point", "coordinates": [-120.64078527181005, 14.844811390966026]}}, {"type": "Feature", "properties": {"norad_id": 43002, "name": "BEIDOU-3 M2 (C20)", "group": "beidou", "lat": -19.43723658818356, "lon": -97.03545720805627, "alt_km": 21541.624589450024, "timestamp": "2025-12-06T14:35:37.391236+00:00", "meta": {"OBJECT_NAME": "BEIDOU-3 M2 (C20)", "OBJECT_ID": "2017-069B", "EPOCH": "2025-12-06T07:18:26.076672", "MEAN_MOTION": 1.8623066, "ECCENTRICITY": 0.00062871, "INCLINATION": 56.5209, "RA_OF_ASC_NODE": 69.4828, "ARG_OF_PERICENTER": 331.4917, "MEAN_ANOMALY": 28.4877, "EPHEMERIS_TYPE": 0, "CLASSIFICATION_TYPE": "U", "NORAD_CAT_ID": 43002, "ELEMENT_SET_NO": 999, "REV_AT_EPOCH": 5500, "BSTAR": 0, "MEAN_MOTION_DOT": -4.6e-07, "MEAN_MOTION_DDOT": 0}, "tle": {"line1": "1 43002U 17069B   25340.30446848 -.00000046  00000+0  00000+0 0  9992", "line2": "2 43002  56.5209  69.4828 0006287 331.4917  28.4877  1.86230660 55004"}}, "geometry": {"type": "Point", "coordinates": [-97.03545720805627, -19.43723658818356]}}, {"type": "Feature", "properties": {"norad_id": 43107, "name": "BEIDOU-3 M7 (C27)", "group": "beidou", "lat": 12.795047960148342, "lon": -41.67193270791612, "alt_km": 21522.142375839994, "timestamp": "2025-12-06T14:35:37.391248+00:00", "meta": {"OBJECT_NAME": "BEIDOU-3 M7 (C27)", "OBJECT_ID": "2018-003A", "EPOCH": "2025-12-05T12:15:18.978048", "MEAN_MOTION": 1.86232243, "ECCENTRICITY": 0.00026626, "INCLINATION": 54.5032, "RA_OF_ASC_NODE": 309.0664, "ARG_OF_PERICENTER": 69.7812, "MEAN_ANOMALY": 290.2304, "EPHEMERIS_TYPE": 0, "CLASSIFICATION_TYPE": "U", "NORAD_CAT_ID": 43107, "ELEMENT_SET_NO": 999, "REV_AT_EPOCH": 5374, "BSTAR": 0, "MEAN_MOTION_DOT": -7.1e-07, "MEAN_MOTION_DDOT": 0}, "tle": {"line1": "1 43107U 18003A   25339.51063632 -.00000071  00000+0  00000+0 0  9992", "line2": "2 43107  54.5032 309.0664 0002662  69.7812 290.2304  1.86232243 53743"}}, "geometry": {"type": "Point", "coordinates": [-41.67193270791612, 12.795047960148342]}}, {"type": "Feature", "properties": {"norad_id": 43108, "name": "BEIDOU-3 M8 (C28)", "group": "beidou", "lat": 40.387369105846545, "lon": -13.643546875063024, "alt_km": 21533.053057321267, "timestamp": "2025-12-06T14:35:37.391259+00:00", "meta": {"OBJECT_NAME": "BEIDOU-3 M8 (C28)", "OBJECT_ID": "2018-003B", "EPOCH": "2025-12-05T23:49:06.243168", "MEAN_MOTION": 1.86230755, "ECCENTRICITY": 0.00047661, "INCLINATION": 54.4957, "RA_OF_ASC_NODE": 309.0324, "ARG_OF_PERICENTER": 274.7089, "MEAN_ANOMALY": 85.2198, "EPHEMERIS_TYPE": 0, "CLASSIFICATION_TYPE": "U", "NORAD_CAT_ID": 43108, "ELEMENT_SET_NO": 999, "REV_AT_EPOCH": 5376, "BSTAR": 0, "MEAN_MOTION_DOT": -7.1e-07, "MEAN_MOTION_DDOT": 0}, "tle": {"line1": "1 43108U 18003B   25339.99243337 -.00000071  00000+0  00000+0 0  9997", "line2": "2 43108  54.4957 309.0324 0004766 274.7089  85.2198  1.86230755 53764"}}, "geometry": {"type": "Point", "coordinates": [-13.643546875063024, 40.387369105846545]}}]}